start=new Date('2022-01-01T00:00:00.000Z').valueOf();
sats=[{"NORAD_CAT_ID":"45102","TLE_LINE2":"2 45102  53.0547 272.6270 0001929  58.2925 301.8252 15.06400088106499","MEAN_ELEMENT_THEORY":"SGP4","LAUNCH_DATE":"2020-01-29","DECAY_DATE":null,"MEAN_MOTION_DOT":"0.00000016","OBJECT_ID":"2020-006BL","COUNTRY_CODE":"US","ELEMENT_SET_NO":"999","APOAPSIS":"548.549","OBJECT_NAME":"STARLINK-1195","BSTAR":"0.00001997800000","TLE_LINE1":"1 45102U 20006BL  21365.23364988  .00000016  00000-0  19978-4 0  9995","GP_ID":"192816795","SEMIMAJOR_AXIS":"6925.348","PERIOD":"95.592","REV_AT_EPOCH":"10649","MEAN_ANOMALY":"301.8252","EPOCH":"2021-12-31T05:36:27.349632","TIME_SYSTEM":"UTC","CENTER_NAME":"EARTH","RA_OF_ASC_NODE":"272.6270","PERIAPSIS":"545.877","SITE":"AFETR","INCLINATION":"53.0547","OBJECT_TYPE":"PAYLOAD","ARG_OF_PERICENTER":"58.2925","REF_FRAME":"TEME","EPHEMERIS_TYPE":"0","FILE":"3255242","MEAN_MOTION":"15.06400088","CLASSIFICATION_TYPE":"U","RCS_SIZE":"LARGE","ECCENTRICITY":"0.00019290","MEAN_MOTION_DDOT":"0.0000000000000"},{"EPHEMERIS_TYPE":"0","CLASSIFICATION_TYPE":"U","RCS_SIZE":"LARGE","ECCENTRICITY":"0.00017340","MEAN_MOTION_DDOT":"0.0000000000000","FILE":"3255242","MEAN_MOTION":"15.06398948","PERIAPSIS":"546.016","RA_OF_ASC_NODE":"271.3543","CENTER_NAME":"EARTH","OBJECT_TYPE":"PAYLOAD","ARG_OF_PERICENTER":"62.8931","REF_FRAME":"TEME","SITE":"AFETR","INCLINATION":"53.0543","REV_AT_EPOCH":"10654","MEAN_ANOMALY":"297.2235","BSTAR":"0.00004231800000","TLE_LINE1":"1 45103U 20006BM  21365.53126842  .00000349  00000-0  42318-4 0  9997","GP_ID":"192818047","SEMIMAJOR_AXIS":"6925.352","PERIOD":"95.592","TIME_SYSTEM":"UTC","EPOCH":"2021-12-31T12:45:01.591488","TLE_LINE2":"2 45103  53.0543 271.3543 0001734  62.8931 297.2235 15.06398948106543","MEAN_ELEMENT_THEORY":"SGP4","MEAN_MOTION_DOT":"0.00000349","DECAY_DATE":null,"LAUNCH_DATE":"2020-01-29","NORAD_CAT_ID":"45103","APOAPSIS":"548.418","OBJECT_NAME":"STARLINK-1196","OBJECT_ID":"2020-006BM","COUNTRY_CODE":"US","ELEMENT_SET_NO":"999"},{"EPHEMERIS_TYPE":"0","CLASSIFICATION_TYPE":"U","ECCENTRICITY":"0.00014300","MEAN_MOTION_DDOT":"0.0000000000000","RCS_SIZE":"LARGE","FILE":"3255242","MEAN_MOTION":"15.06390777","PERIAPSIS":"546.251","RA_OF_ASC_NODE":"71.6295","CENTER_NAME":"EARTH","OBJECT_TYPE":"PAYLOAD","ARG_OF_PERICENTER":"77.7067","REF_FRAME":"TEME","SITE":"AFETR","INCLINATION":"53.0547","MEAN_ANOMALY":"282.4082","REV_AT_EPOCH":"10428","SEMIMAJOR_AXIS":"6925.377","GP_ID":"192817053","TLE_LINE1":"1 45178U 20012A   21365.45112872 -.00001606  00000-0 -88995-4 0  9995","BSTAR":"-0.00008899500000","PERIOD":"95.593","TIME_SYSTEM":"UTC","EPOCH":"2021-12-31T10:49:37.521408","MEAN_ELEMENT_THEORY":"SGP4","TLE_LINE2":"2 45178  53.0547  71.6295 0001430  77.7067 282.4082 15.06390777104289","LAUNCH_DATE":"2020-02-17","DECAY_DATE":null,"MEAN_MOTION_DOT":"-0.00001606","NORAD_CAT_ID":"45178","OBJECT_NAME":"STARLINK-1138","APOAPSIS":"548.232","COUNTRY_CODE":"US","OBJECT_ID":"2020-012A","ELEMENT_SET_NO":"999"},{"EPOCH":"2021-12-31T12:30:28.074528","TIME_SYSTEM":"UTC","PERIOD":"95.593","GP_ID":"192817303","TLE_LINE1":"1 45179U 20012B   21365.52115827  .00001186  00000-0  98498-4 0  9997","BSTAR":"0.00009849800000","SEMIMAJOR_AXIS":"6925.369","REV_AT_EPOCH":"10435","MEAN_ANOMALY":"278.1638","ELEMENT_SET_NO":"999","OBJECT_ID":"2020-012B","COUNTRY_CODE":"US","OBJECT_NAME":"STARLINK-1143","APOAPSIS":"548.239","NORAD_CAT_ID":"45179","MEAN_MOTION_DOT":"0.00001186","DECAY_DATE":null,"LAUNCH_DATE":"2020-02-17","TLE_LINE2":"2 45179  53.0541  71.3278 0001450  81.9516 278.1638 15.06393170104357","MEAN_ELEMENT_THEORY":"SGP4","MEAN_MOTION":"15.06393170","FILE":"3255242","RCS_SIZE":"LARGE","ECCENTRICITY":"0.00014500","MEAN_MOTION_DDOT":"0.0000000000000","CLASSIFICATION_TYPE":"U","EPHEMERIS_TYPE":"0","INCLINATION":"53.0541","SITE":"AFETR","REF_FRAME":"TEME","ARG_OF_PERICENTER":"81.9516","OBJECT_TYPE":"PAYLOAD","CENTER_NAME":"EARTH","PERIAPSIS":"546.230","RA_OF_ASC_NODE":"71.3278"},{"NORAD_CAT_ID":"45180","MEAN_ELEMENT_THEORY":"SGP4","TLE_LINE2":"2 45180  53.0513  71.3663 0001609  83.3603 276.7569 15.06389862104355","LAUNCH_DATE":"2020-02-17","DECAY_DATE":null,"MEAN_MOTION_DOT":"0.00001594","COUNTRY_CODE":"US","OBJECT_ID":"2020-012C","ELEMENT_SET_NO":"999","APOAPSIS":"548.359","OBJECT_NAME":"STARLINK-1192","SEMIMAJOR_AXIS":"6925.380","BSTAR":"0.00012593000000","TLE_LINE1":"1 45180U 20012C   21365.51284758  .00001594  00000-0  12593-3 0  9992","GP_ID":"192817554","PERIOD":"95.593","MEAN_ANOMALY":"276.7569","REV_AT_EPOCH":"10435","EPOCH":"2021-12-31T12:18:30.030912","TIME_SYSTEM":"UTC","CENTER_NAME":"EARTH","RA_OF_ASC_NODE":"71.3663","PERIAPSIS":"546.130","SITE":"AFETR","INCLINATION":"53.0513","OBJECT_TYPE":"PAYLOAD","REF_FRAME":"TEME","ARG_OF_PERICENTER":"83.3603","EPHEMERIS_TYPE":"0","FILE":"3255242","MEAN_MOTION":"15.06389862","CLASSIFICATION_TYPE":"U","ECCENTRICITY":"0.00016090","MEAN_MOTION_DDOT":"0.0000000000000","RCS_SIZE":"LARGE"},{"EPHEMERIS_TYPE":"0","CLASSIFICATION_TYPE":"U","MEAN_MOTION_DDOT":"0.0000000000000","ECCENTRICITY":"0.00023900","RCS_SIZE":"LARGE","FILE":"3255242","MEAN_MOTION":"15.06226299","RA_OF_ASC_NODE":"71.0819","PERIAPSIS":"546.091","CENTER_NAME":"EARTH","OBJECT_TYPE":"PAYLOAD","ARG_OF_PERICENTER":"72.4117","REF_FRAME":"TEME","SITE":"AFETR","INCLINATION":"53.0549","MEAN_ANOMALY":"287.7133","REV_AT_EPOCH":"10436","SEMIMAJOR_AXIS":"6925.881","TLE_LINE1":"1 45181U 20012D   21365.57282144  .00041366  00000-0  27927-2 0  9993","BSTAR":"0.00279270000000","GP_ID":"192817792","PERIOD":"95.603","TIME_SYSTEM":"UTC","EPOCH":"2021-12-31T13:44:51.772416","MEAN_ELEMENT_THEORY":"SGP4","TLE_LINE2":"2 45181  53.0549  71.0819 0002390  72.4117 287.7133 15.06226299104366","LAUNCH_DATE":"2020-02-17","DECAY_DATE":null,"MEAN_MOTION_DOT":"0.00041366","NORAD_CAT_ID":"45181","APOAPSIS":"549.401","OBJECT_NAME":"STARLINK-1200","COUNTRY_CODE":"US","OBJECT_ID":"2020-012D","ELEMENT_SET_NO":"999"},{"MEAN_ELEMENT_THEORY":"SGP4","TLE_LINE2":"2 45182  53.0553  51.3088 0001467  79.8021 280.3134 15.06388285104487","MEAN_MOTION_DOT":"-0.00000730","DECAY_DATE":null,"LAUNCH_DATE":"2020-02-17","NORAD_CAT_ID":"45182","APOAPSIS":"548.265","OBJECT_NAME":"STARLINK-1201","OBJECT_ID":"2020-012E","COUNTRY_CODE":"US","ELEMENT_SET_NO":"999","REV_AT_EPOCH":"10448","MEAN_ANOMALY":"280.3134","BSTAR":"-0.00003012800000","TLE_LINE1":"1 45182U 20012E   21365.52668628 -.00000730  00000-0 -30128-4 0  9995","GP_ID":"192816553","SEMIMAJOR_AXIS":"6925.384","PERIOD":"95.593","TIME_SYSTEM":"UTC","EPOCH":"2021-12-31T12:38:25.694592","PERIAPSIS":"546.234","RA_OF_ASC_NODE":"51.3088","CENTER_NAME":"EARTH","OBJECT_TYPE":"PAYLOAD","REF_FRAME":"TEME","ARG_OF_PERICENTER":"79.8021","SITE":"AFETR","INCLINATION":"53.0553","EPHEMERIS_TYPE":"0","CLASSIFICATION_TYPE":"U","RCS_SIZE":"LARGE","ECCENTRICITY":"0.00014670","MEAN_MOTION_DDOT":"0.0000000000000","FILE":"3255242","MEAN_MOTION":"15.06388285"},{"CENTER_NAME":"EARTH","PERIAPSIS":"546.354","RA_OF_ASC_NODE":"71.2236","INCLINATION":"53.0554","SITE":"AFETR","REF_FRAME":"TEME","ARG_OF_PERICENTER":"92.2338","OBJECT_TYPE":"PAYLOAD","EPHEMERIS_TYPE":"0","MEAN_MOTION":"15.06387571","FILE":"3255242","RCS_SIZE":"LARGE","ECCENTRICITY":"0.00012960","MEAN_MOTION_DDOT":"0.0000000000000","CLASSIFICATION_TYPE":"U","NORAD_CAT_ID":"45183","DECAY_DATE":null,"LAUNCH_DATE":"2020-02-17","MEAN_MOTION_DOT":"-0.00000889","MEAN_ELEMENT_THEORY":"SGP4","TLE_LINE2":"2 45183  53.0554  71.2236 0001296  92.2338 267.8799 15.06387571104366","ELEMENT_SET_NO":"999","OBJECT_ID":"2020-012F","COUNTRY_CODE":"US","OBJECT_NAME":"STARLINK-1202","APOAPSIS":"548.149","PERIOD":"95.593","TLE_LINE1":"1 45183U 20012F   21365.54327595 -.00000889  00000-0 -40836-4 0  9995","GP_ID":"192816803","BSTAR":"-0.00004083600000","SEMIMAJOR_AXIS":"6925.387","REV_AT_EPOCH":"10436","MEAN_ANOMALY":"267.8799","EPOCH":"2021-12-31T13:02:19.042080","TIME_SYSTEM":"UTC"},{"SITE":"AFETR","INCLINATION":"53.0541","OBJECT_TYPE":"PAYLOAD","REF_FRAME":"TEME","ARG_OF_PERICENTER":"75.1791","CENTER_NAME":"EARTH","RA_OF_ASC_NODE":"51.2572","PERIAPSIS":"546.237","FILE":"3255242","MEAN_MOTION":"15.06402404","CLASSIFICATION_TYPE":"U","RCS_SIZE":"LARGE","ECCENTRICITY":"0.00014000","MEAN_MOTION_DDOT":"0.0000000000000","EPHEMERIS_TYPE":"0","OBJECT_ID":"2020-012G","COUNTRY_CODE":"US","ELEMENT_SET_NO":"999","APOAPSIS":"548.176","OBJECT_NAME":"STARLINK-1205","NORAD_CAT_ID":"45184","TLE_LINE2":"2 45184  53.0541  51.2572 0001400  75.1791 284.9353 15.06402404103676","MEAN_ELEMENT_THEORY":"SGP4","DECAY_DATE":null,"MEAN_MOTION_DOT":"0.00000965","LAUNCH_DATE":"2020-02-17","EPOCH":"2021-12-31T12:49:02.043552","TIME_SYSTEM":"UTC","GP_ID":"192818055","TLE_LINE1":"1 45184U 20012G   21365.53405143  .00000965  00000-0  83637-4 0  9990","BSTAR":"0.00008363700000","SEMIMAJOR_AXIS":"6925.341","PERIOD":"95.592","REV_AT_EPOCH":"10367","MEAN_ANOMALY":"284.9353"},{"OBJECT_NAME":"STARLINK-1216","APOAPSIS":"548.028","COUNTRY_CODE":"US","OBJECT_ID":"2020-012H","ELEMENT_SET_NO":"999","MEAN_ELEMENT_THEORY":"SGP4","TLE_LINE2":"2 45185  53.0544  71.5545 0001129  78.6203 281.4913 15.06389262104298","LAUNCH_DATE":"2020-02-17","DECAY_DATE":null,"MEAN_MOTION_DOT":"0.00000405","NORAD_CAT_ID":"45185","TIME_SYSTEM":"UTC","EPOCH":"2021-12-31T11:16:09.964128","MEAN_ANOMALY":"281.4913","REV_AT_EPOCH":"10429","SEMIMAJOR_AXIS":"6925.381","TLE_LINE1":"1 45185U 20012H   21365.46955977  .00000405  00000-0  46054-4 0  9999","BSTAR":"0.00004605400000","GP_ID":"192818293","PERIOD":"95.593","OBJECT_TYPE":"PAYLOAD","ARG_OF_PERICENTER":"78.6203","REF_FRAME":"TEME","SITE":"AFETR","INCLINATION":"53.0544","PERIAPSIS":"546.465","RA_OF_ASC_NODE":"71.5545","CENTER_NAME":"EARTH","CLASSIFICATION_TYPE":"U","ECCENTRICITY":"0.00011290","MEAN_MOTION_DDOT":"0.0000000000000","RCS_SIZE":"LARGE","FILE":"3255242","MEAN_MOTION":"15.06389262","EPHEMERIS_TYPE":"0"}];
